IRIDIUM 171             
1 43929U 19002H   23358.56595621 -.00000009  00000+0 -10263-4 0  9995
2 43929  86.3974  12.2602 0001993  91.3409 268.8015 14.34218006259158
IRIDIUM 170             
1 43930U 19002J   23358.56347069  .00001743  00000+0  27244-3 0  9998
2 43930  86.6098  12.1081 0002526  88.0912 272.0594 14.72273679266016
IRIDIUM 167             
1 43931U 19002K   23358.55961293  .00000485  00000+0  16598-3 0  9991
2 43931  86.3969  12.0711 0002084  90.1920 269.9515 14.34220110259157
IRIDIUM 181             
1 56726U 23068S   23358.59754384  .00000633  00000+0  18112-3 0  9998
2 56726  86.8628  57.2620 0002104  69.6161 290.5267 14.43585852 31802
IRIDIUM 177             
1 56727U 23068T   23358.59612161  .00002332  00000+0  30335-3 0  9994
2 56727  86.1978  38.7156 0002367  98.3031 261.8459 14.80244565 32403
IRIDIUM 174             
1 56728U 23068U   23358.65831833  .00002337  00000+0  30395-3 0  9992
2 56728  86.1983  38.7756 0002237  97.1874 262.9602 14.80254603 32411
IRIDIUM 178             
1 56729U 23068V   23358.58530715  .00002313  00000+0  30076-3 0  9990
2 56729  86.5784  47.9498 0002453  97.5674 262.5826 14.80263389 32406
IRIDIUM 179             
1 56730U 23068W   23358.57988618  .00002303  00000+0  29948-3 0  9995
2 56730  86.6792  49.8740 0002443  99.6694 260.4804 14.80260769 32405
